{
  "type": "FeatureCollection",
  "features": [
    {
      "type": "Feature",
      "properties": {
        "norad_id": 66174,
        "name": "HTV-X1",
        "group": "stations",
        "lat": -45.795892757613984,
        "lon": 96.63619669435222,
        "alt_km": 421.5608199502876,
        "timestamp": "2025-12-10T23:33:11.640660+00:00",
        "meta_object_name": "HTV-X1",
        "meta_object_id": "2025-241A",
        "meta_epoch": "2025-12-10T13:00:09.919872",
        "meta_mean_motion": 15.49478601,
        "meta_eccentricity": 0.00033601,
        "meta_inclination": 51.6308,
        "meta_ra_of_asc_node": 153.362,
        "meta_arg_of_pericenter": 230.7092,
        "meta_mean_anomaly": 129.3599,
        "meta_ephemeris_type": 0,
        "meta_classification_type": "U",
        "meta_norad_cat_id": 66174,
        "meta_element_set_no": 999,
        "meta_rev_at_epoch": 51,
        "meta_bstar": 0.0002844348,
        "meta_mean_motion_dot": 0.00015517,
        "meta_mean_motion_ddot": 0,
        "tle_line1": "1 66174U 25241A   25344.54178148  .00015517  00000+0  28443-3 0  9996",
        "tle_line2": "2 66174  51.6308 153.3620 0003360 230.7092 129.3599 15.49478601   513"
      },
      "geometry": {
        "type": "Point",
        "coordinates": [
          96.63619669435222,
          -45.795892757613984
        ]
      }
    },
    {
      "type": "Feature",
      "properties": {
        "norad_id": 66515,
        "name": "SZ-21 MODULE",
        "group": "stations",
        "lat": -28.550130201458845,
        "lon": -115.21085509259555,
        "alt_km": 379.4901122623778,
        "timestamp": "2025-12-10T23:33:11.640671+00:00",
        "meta_object_name": "SZ-21 MODULE",
        "meta_object_id": "2025-246C",
        "meta_epoch": "2025-12-10T11:51:01.003968",
        "meta_mean_motion": 15.62311534,
        "meta_eccentricity": 0.00062785,
        "meta_inclination": 41.4772,
        "meta_ra_of_asc_node": 29.7454,
        "meta_arg_of_pericenter": 248.1298,
        "meta_mean_anomaly": 111.8874,
        "meta_ephemeris_type": 0,
        "meta_classification_type": "U",
        "meta_norad_cat_id": 66515,
        "meta_element_set_no": 999,
        "meta_rev_at_epoch": 409,
        "meta_bstar": 0.00039110764,
        "meta_mean_motion_dot": 0.00035412,
        "meta_mean_motion_ddot": 0,
        "tle_line1": "1 66515U 25246C   25344.49376162  .00035412  00000+0  39111-3 0  9990",
        "tle_line2": "2 66515  41.4772  29.7454 0006278 248.1298 111.8874 15.62311534  4092"
      },
      "geometry": {
        "type": "Point",
        "coordinates": [
          -115.21085509259555,
          -28.550130201458845
        ]
      }
    },
    {
      "type": "Feature",
      "properties": {
        "norad_id": 66645,
        "name": "SHENZHOU-22",
        "group": "stations",
        "lat": -13.934179216313819,
        "lon": 11.06400317646252,
        "alt_km": 386.84402244277044,
        "timestamp": "2025-12-10T23:33:11.640680+00:00",
        "meta_object_name": "SHENZHOU-22",
        "meta_object_id": "2025-272A",
        "meta_epoch": "2025-12-10T14:25:11.377632",
        "meta_mean_motion": 15.59037498,
        "meta_eccentricity": 0.00087682,
        "meta_inclination": 41.4683,
        "meta_ra_of_asc_node": 29.6917,
        "meta_arg_of_pericenter": 13.0632,
        "meta_mean_anomaly": 347.0432,
        "meta_ephemeris_type": 0,
        "meta_classification_type": "U",
        "meta_norad_cat_id": 66645,
        "meta_element_set_no": 999,
        "meta_rev_at_epoch": 26357,
        "meta_bstar": 0.00043760673,
        "meta_mean_motion_dot": 0.00034963,
        "meta_mean_motion_ddot": 0,
        "tle_line1": "1 66645U 25272A   25344.60082613  .00034963  00000+0  43761-3 0  9997",
        "tle_line2": "2 66645  41.4683  29.6917 0008768  13.0632 347.0432 15.59037498263570"
      },
      "geometry": {
        "type": "Point",
        "coordinates": [
          11.06400317646252,
          -13.934179216313819
        ]
      }
    },
    {
      "type": "Feature",
      "properties": {
        "norad_id": 66664,
        "name": "SOYUZ-MS 28",
        "group": "stations",
        "lat": -45.79589190701073,
        "lon": 96.63619908286827,
        "alt_km": 421.56081998640093,
        "timestamp": "2025-12-10T23:33:11.640689+00:00",
        "meta_object_name": "SOYUZ-MS 28",
        "meta_object_id": "2025-275A",
        "meta_epoch": "2025-12-10T13:00:09.919872",
        "meta_mean_motion": 15.49478601,
        "meta_eccentricity": 0.00033601,
        "meta_inclination": 51.6308,
        "meta_ra_of_asc_node": 153.362,
        "meta_arg_of_pericenter": 230.7092,
        "meta_mean_anomaly": 129.3599,
        "meta_ephemeris_type": 0,
        "meta_classification_type": "U",
        "meta_norad_cat_id": 66664,
        "meta_element_set_no": 999,
        "meta_rev_at_epoch": 128,
        "meta_bstar": 0.0002844348,
        "meta_mean_motion_dot": 0.00015517,
        "meta_mean_motion_ddot": 0,
        "tle_line1": "1 66664U 25275A   25344.54178148  .00015517  00000+0  28443-3 0  9997",
        "tle_line2": "2 66664  51.6308 153.3620 0003360 230.7092 129.3599 15.49478601  1282"
      },
      "geometry": {
        "type": "Point",
        "coordinates": [
          96.63619908286827,
          -45.79589190701073
        ]
      }
    },
    {
      "type": "Feature",
      "properties": {
        "norad_id": 66906,
        "name": "1998-067XS",
        "group": "stations",
        "lat": -32.22001162708575,
        "lon": 121.18068514796514,
        "alt_km": 420.7413101117727,
        "timestamp": "2025-12-10T23:33:11.640698+00:00",
        "meta_object_name": "1998-067XS",
        "meta_object_id": "1998-067XS",
        "meta_epoch": "2025-12-10T00:31:58.659744",
        "meta_mean_motion": 15.50350034,
        "meta_eccentricity": 0.0003912,
        "meta_inclination": 51.6303,
        "meta_ra_of_asc_node": 155.8936,
        "meta_arg_of_pericenter": 190.7132,
        "meta_mean_anomaly": 169.3774,
        "meta_ephemeris_type": 0,
        "meta_classification_type": "U",
        "meta_norad_cat_id": 66906,
        "meta_element_set_no": 999,
        "meta_rev_at_epoch": 119,
        "meta_bstar": 0.00063423893,
        "meta_mean_motion_dot": 0.00036365,
        "meta_mean_motion_ddot": 0,
        "tle_line1": "1 66906U 98067XS  25344.02220671  .00036365  00000+0  63424-3 0  9999",
        "tle_line2": "2 66906  51.6303 155.8936 0003912 190.7132 169.3774 15.50350034  1196"
      },
      "geometry": {
        "type": "Point",
        "coordinates": [
          121.18068514796514,
          -32.22001162708575
        ]
      }
    },
    {
      "type": "Feature",
      "properties": {
        "norad_id": 66907,
        "name": "1998-067XT",
        "group": "stations",
        "lat": -25.059804663360268,
        "lon": 129.37032102949797,
        "alt_km": 418.1371391346129,
        "timestamp": "2025-12-10T23:33:11.640708+00:00",
        "meta_object_name": "1998-067XT",
        "meta_object_id": "1998-067XT",
        "meta_epoch": "2025-12-09T12:07:37.114752",
        "meta_mean_motion": 15.50864429,
        "meta_eccentricity": 0.00048036,
        "meta_inclination": 51.6307,
        "meta_ra_of_asc_node": 158.4423,
        "meta_arg_of_pericenter": 208.5081,
        "meta_mean_anomaly": 151.5646,
        "meta_ephemeris_type": 0,
        "meta_classification_type": "U",
        "meta_norad_cat_id": 66907,
        "meta_element_set_no": 999,
        "meta_rev_at_epoch": 111,
        "meta_bstar": 0.0012921241,
        "meta_mean_motion_dot": 0.00076342,
        "meta_mean_motion_ddot": 0,
        "tle_line1": "1 66907U 98067XT  25343.50529068  .00076342  00000+0  12921-2 0  9998",
        "tle_line2": "2 66907  51.6307 158.4423 0004803 208.5081 151.5646 15.50864429  1113"
      },
      "geometry": {
        "type": "Point",
        "coordinates": [
          129.37032102949797,
          -25.059804663360268
        ]
      }
    },
    {
      "type": "Feature",
      "properties": {
        "norad_id": 66908,
        "name": "1998-067XU",
        "group": "stations",
        "lat": -23.989879966126985,
        "lon": 130.46754597843116,
        "alt_km": 417.8637153621521,
        "timestamp": "2025-12-10T23:33:11.640717+00:00",
        "meta_object_name": "1998-067XU",
        "meta_object_id": "1998-067XU",
        "meta_epoch": "2025-12-10T14:24:36.801216",
        "meta_mean_motion": 15.51106152,
        "meta_eccentricity": 0.00048077,
        "meta_inclination": 51.6304,
        "meta_ra_of_asc_node": 153.0048,
        "meta_arg_of_pericenter": 213.3115,
        "meta_mean_anomaly": 146.7573,
        "meta_ephemeris_type": 0,
        "meta_classification_type": "U",
        "meta_norad_cat_id": 66908,
        "meta_element_set_no": 999,
        "meta_rev_at_epoch": 128,
        "meta_bstar": 0.0015174275,
        "meta_mean_motion_dot": 0.00090678,
        "meta_mean_motion_ddot": 0,
        "tle_line1": "1 66908U 98067XU  25344.60042594  .00090678  00000+0  15174-2 0  9996",
        "tle_line2": "2 66908  51.6304 153.0048 0004807 213.3115 146.7573 15.51106152  1287"
      },
      "geometry": {
        "type": "Point",
        "coordinates": [
          130.46754597843116,
          -23.989879966126985
        ]
      }
    }
  ]
}